SL-4 R/B                
1 39679U 14021B   26055.18672961  .00015115  00000+0  33825-3 0  9996
2 39679  51.6067  43.1269 0098563  53.7630 307.2415 15.38674173654193
ALOS-2                  
1 39766U 14029A   26055.86864102  .00001356  00000+0  18838-3 0  9995
2 39766  97.9193 154.6509 0001590  99.3664 260.7727 14.79484473634974
YAOGAN-29               
1 41038U 15069A   26055.83975576  .00000909  00000+0  11863-3 0  9994
2 41038  98.0163  84.2342 0002572  58.4096 301.7368 14.82980340553972
ASTRO-H (HITOMI)        
1 41337U 16012A   26055.41308752  .00003249  00000+0  18980-3 0  9992
2 41337  30.9995  82.2163 0009938 199.3401 160.6861 15.09896449550220
HXMT (HUIYAN)           
1 42758U 17034A   26055.54645627  .00004849  00000+0  24792-3 0  9999
2 42758  43.0139  89.7326 0031243 153.6076 206.6371 15.17274945480545
CZ-2C R/B               
1 43521U 18054D   26055.31705072  .01142321  88223-3  76841-3 0  9995
2 43521  35.1264  32.0351 0010756 188.7801 171.2758 16.15823450426754
SAOCOM 1A               
1 43641U 18076A   26055.79850071  .00000369  00000+0  52877-4 0  9995
2 43641  97.8885 244.1530 0001262  81.4263 278.7093 14.82151792399455
H-2A R/B                
1 43682U 18084L   26055.55154740  .00018631  00000+0  45273-3 0  9995
2 43682  98.8751 270.1374 0026213  69.4250 290.9801 15.40717121403754
SAOCOM 1B               
1 46265U 20059A   26055.82974001  .00000810  00000+0  10828-3 0  9998
2 46265  97.8884 243.2816 0001479  83.2658 276.8723 14.82158416296842
CSS (TIANHE)            
1 48274U 21035A   26055.78660645  .00012062  00000+0  14833-3 0  9998
2 48274  41.4665 286.6373 0005501 188.7562 171.3181 15.60079009275593
COSMOS 2550             
1 48865U 21056A   26052.86751211 -.00000189  00000+0  98957-7 0  9994
2 48865  67.1417  88.7921 0008383 269.2454  90.7739 15.33831385261035
CZ-2C R/B               
1 52794U 22058K   26055.32794866  .00035751  00000+0  54144-3 0  9998
2 52794  50.1897  26.9679 0042113 143.8974 216.4853 15.53231999208056
