CCSDS_OMM_VERS = 2.0
CREATION_DATE  = 
ORIGINATOR     = 

OBJECT_NAME    = SL-4 R/B
OBJECT_ID      = 2014-021B
CENTER_NAME    = EARTH
REF_FRAME      = TEME
TIME_SYSTEM    = UTC
MEAN_ELEMENT_THEORY = SGP/SGP4

EPOCH          = 2026-02-24T04:28:53.438304
MEAN_MOTION    = 15.38674173
ECCENTRICITY   = .0098563
INCLINATION    = 51.6067
RA_OF_ASC_NODE = 43.1269
ARG_OF_PERICENTER = 53.7630
MEAN_ANOMALY   = 307.2415

EPHEMERIS_TYPE = 0
CLASSIFICATION_TYPE = U
NORAD_CAT_ID   = 39679
ELEMENT_SET_NO = 999
REV_AT_EPOCH   = 65419
BSTAR          = .33825E-3
MEAN_MOTION_DOT = .15115E-3
MEAN_MOTION_DDOT = 0

CCSDS_OMM_VERS = 2.0
CREATION_DATE  = 
ORIGINATOR     = 

OBJECT_NAME    = ALOS-2
OBJECT_ID      = 2014-029A
CENTER_NAME    = EARTH
REF_FRAME      = TEME
TIME_SYSTEM    = UTC
MEAN_ELEMENT_THEORY = SGP/SGP4

EPOCH          = 2026-02-24T20:50:50.584128
MEAN_MOTION    = 14.79484473
ECCENTRICITY   = .000159
INCLINATION    = 97.9193
RA_OF_ASC_NODE = 154.6509
ARG_OF_PERICENTER = 99.3664
MEAN_ANOMALY   = 260.7727

EPHEMERIS_TYPE = 0
CLASSIFICATION_TYPE = U
NORAD_CAT_ID   = 39766
ELEMENT_SET_NO = 999
REV_AT_EPOCH   = 63497
BSTAR          = .18838E-3
MEAN_MOTION_DOT = .1356E-4
MEAN_MOTION_DDOT = 0

CCSDS_OMM_VERS = 2.0
CREATION_DATE  = 
ORIGINATOR     = 

OBJECT_NAME    = YAOGAN-29
OBJECT_ID      = 2015-069A
CENTER_NAME    = EARTH
REF_FRAME      = TEME
TIME_SYSTEM    = UTC
MEAN_ELEMENT_THEORY = SGP/SGP4

EPOCH          = 2026-02-24T20:09:14.897664
MEAN_MOTION    = 14.82980340
ECCENTRICITY   = .0002572
INCLINATION    = 98.0163
RA_OF_ASC_NODE = 84.2342
ARG_OF_PERICENTER = 58.4096
MEAN_ANOMALY   = 301.7368

EPHEMERIS_TYPE = 0
CLASSIFICATION_TYPE = U
NORAD_CAT_ID   = 41038
ELEMENT_SET_NO = 999
REV_AT_EPOCH   = 55397
BSTAR          = .11863E-3
MEAN_MOTION_DOT = .909E-5
MEAN_MOTION_DDOT = 0

CCSDS_OMM_VERS = 2.0
CREATION_DATE  = 
ORIGINATOR     = 

OBJECT_NAME    = ASTRO-H (HITOMI)
OBJECT_ID      = 2016-012A
CENTER_NAME    = EARTH
REF_FRAME      = TEME
TIME_SYSTEM    = UTC
MEAN_ELEMENT_THEORY = SGP/SGP4

EPOCH          = 2026-02-24T09:54:50.761728
MEAN_MOTION    = 15.09896449
ECCENTRICITY   = .00099381
INCLINATION    = 30.9995
RA_OF_ASC_NODE = 82.2163
ARG_OF_PERICENTER = 199.3401
MEAN_ANOMALY   = 160.6861

EPHEMERIS_TYPE = 0
CLASSIFICATION_TYPE = U
NORAD_CAT_ID   = 41337
ELEMENT_SET_NO = 999
REV_AT_EPOCH   = 55022
BSTAR          = .18980235E-3
MEAN_MOTION_DOT = .3249E-4
MEAN_MOTION_DDOT = 0

CCSDS_OMM_VERS = 2.0
CREATION_DATE  = 
ORIGINATOR     = 

OBJECT_NAME    = HXMT (HUIYAN)
OBJECT_ID      = 2017-034A
CENTER_NAME    = EARTH
REF_FRAME      = TEME
TIME_SYSTEM    = UTC
MEAN_ELEMENT_THEORY = SGP/SGP4

EPOCH          = 2026-02-24T13:06:53.821728
MEAN_MOTION    = 15.17274945
ECCENTRICITY   = .0031243
INCLINATION    = 43.0139
RA_OF_ASC_NODE = 89.7326
ARG_OF_PERICENTER = 153.6076
MEAN_ANOMALY   = 206.6371

EPHEMERIS_TYPE = 0
CLASSIFICATION_TYPE = U
NORAD_CAT_ID   = 42758
ELEMENT_SET_NO = 999
REV_AT_EPOCH   = 48054
BSTAR          = .24792E-3
MEAN_MOTION_DOT = .4849E-4
MEAN_MOTION_DDOT = 0

CCSDS_OMM_VERS = 2.0
CREATION_DATE  = 
ORIGINATOR     = 

OBJECT_NAME    = CZ-2C R/B
OBJECT_ID      = 2018-054D
CENTER_NAME    = EARTH
REF_FRAME      = TEME
TIME_SYSTEM    = UTC
MEAN_ELEMENT_THEORY = SGP/SGP4

EPOCH          = 2026-02-24T07:36:33.182208
MEAN_MOTION    = 16.15823450
ECCENTRICITY   = .0010756
INCLINATION    = 35.1264
RA_OF_ASC_NODE = 32.0351
ARG_OF_PERICENTER = 188.7801
MEAN_ANOMALY   = 171.2758

EPHEMERIS_TYPE = 0
CLASSIFICATION_TYPE = U
NORAD_CAT_ID   = 43521
ELEMENT_SET_NO = 999
REV_AT_EPOCH   = 42675
BSTAR          = .76841E-3
MEAN_MOTION_DOT = .1142321E-1
MEAN_MOTION_DDOT = .88223E-3

CCSDS_OMM_VERS = 2.0
CREATION_DATE  = 
ORIGINATOR     = 

OBJECT_NAME    = SAOCOM 1A
OBJECT_ID      = 2018-076A
CENTER_NAME    = EARTH
REF_FRAME      = TEME
TIME_SYSTEM    = UTC
MEAN_ELEMENT_THEORY = SGP/SGP4

EPOCH          = 2026-02-24T19:09:50.461344
MEAN_MOTION    = 14.82151792
ECCENTRICITY   = .0001262
INCLINATION    = 97.8885
RA_OF_ASC_NODE = 244.1530
ARG_OF_PERICENTER = 81.4263
MEAN_ANOMALY   = 278.7093

EPHEMERIS_TYPE = 0
CLASSIFICATION_TYPE = U
NORAD_CAT_ID   = 43641
ELEMENT_SET_NO = 999
REV_AT_EPOCH   = 39945
BSTAR          = .52877E-4
MEAN_MOTION_DOT = .369E-5
MEAN_MOTION_DDOT = 0

CCSDS_OMM_VERS = 2.0
CREATION_DATE  = 
ORIGINATOR     = 

OBJECT_NAME    = H-2A R/B
OBJECT_ID      = 2018-084L
CENTER_NAME    = EARTH
REF_FRAME      = TEME
TIME_SYSTEM    = UTC
MEAN_ELEMENT_THEORY = SGP/SGP4

EPOCH          = 2026-02-24T13:14:13.695360
MEAN_MOTION    = 15.40717121
ECCENTRICITY   = .0026213
INCLINATION    = 98.8751
RA_OF_ASC_NODE = 270.1374
ARG_OF_PERICENTER = 69.4250
MEAN_ANOMALY   = 290.9801

EPHEMERIS_TYPE = 0
CLASSIFICATION_TYPE = U
NORAD_CAT_ID   = 43682
ELEMENT_SET_NO = 999
REV_AT_EPOCH   = 40375
BSTAR          = .45273E-3
MEAN_MOTION_DOT = .18631E-3
MEAN_MOTION_DDOT = 0

CCSDS_OMM_VERS = 2.0
CREATION_DATE  = 
ORIGINATOR     = 

OBJECT_NAME    = SAOCOM 1B
OBJECT_ID      = 2020-059A
CENTER_NAME    = EARTH
REF_FRAME      = TEME
TIME_SYSTEM    = UTC
MEAN_ELEMENT_THEORY = SGP/SGP4

EPOCH          = 2026-02-24T19:54:49.536864
MEAN_MOTION    = 14.82158416
ECCENTRICITY   = .0001479
INCLINATION    = 97.8884
RA_OF_ASC_NODE = 243.2816
ARG_OF_PERICENTER = 83.2658
MEAN_ANOMALY   = 276.8723

EPHEMERIS_TYPE = 0
CLASSIFICATION_TYPE = U
NORAD_CAT_ID   = 46265
ELEMENT_SET_NO = 999
REV_AT_EPOCH   = 29684
BSTAR          = .10828E-3
MEAN_MOTION_DOT = .81E-5
MEAN_MOTION_DDOT = 0

CCSDS_OMM_VERS = 2.0
CREATION_DATE  = 
ORIGINATOR     = 

OBJECT_NAME    = CSS (TIANHE)
OBJECT_ID      = 2021-035A
CENTER_NAME    = EARTH
REF_FRAME      = TEME
TIME_SYSTEM    = UTC
MEAN_ELEMENT_THEORY = SGP/SGP4

EPOCH          = 2026-02-24T18:52:42.797280
MEAN_MOTION    = 15.60079009
ECCENTRICITY   = .0005501
INCLINATION    = 41.4665
RA_OF_ASC_NODE = 286.6373
ARG_OF_PERICENTER = 188.7562
MEAN_ANOMALY   = 171.3181

EPHEMERIS_TYPE = 0
CLASSIFICATION_TYPE = U
NORAD_CAT_ID   = 48274
ELEMENT_SET_NO = 999
REV_AT_EPOCH   = 27559
BSTAR          = .14833E-3
MEAN_MOTION_DOT = .12062E-3
MEAN_MOTION_DDOT = 0

CCSDS_OMM_VERS = 2.0
CREATION_DATE  = 
ORIGINATOR     = 

OBJECT_NAME    = COSMOS 2550
OBJECT_ID      = 2021-056A
CENTER_NAME    = EARTH
REF_FRAME      = TEME
TIME_SYSTEM    = UTC
MEAN_ELEMENT_THEORY = SGP/SGP4

EPOCH          = 2026-02-21T20:49:13.046304
MEAN_MOTION    = 15.33831385
ECCENTRICITY   = .0008383
INCLINATION    = 67.1417
RA_OF_ASC_NODE = 88.7921
ARG_OF_PERICENTER = 269.2454
MEAN_ANOMALY   = 90.7739

EPHEMERIS_TYPE = 0
CLASSIFICATION_TYPE = U
NORAD_CAT_ID   = 48865
ELEMENT_SET_NO = 999
REV_AT_EPOCH   = 26103
BSTAR          = .98957E-7
MEAN_MOTION_DOT = -.189E-5
MEAN_MOTION_DDOT = 0

CCSDS_OMM_VERS = 2.0
CREATION_DATE  = 
ORIGINATOR     = 

OBJECT_NAME    = CZ-2C R/B
OBJECT_ID      = 2022-058K
CENTER_NAME    = EARTH
REF_FRAME      = TEME
TIME_SYSTEM    = UTC
MEAN_ELEMENT_THEORY = SGP/SGP4

EPOCH          = 2026-02-24T07:52:14.764224
MEAN_MOTION    = 15.53231999
ECCENTRICITY   = .00421136
INCLINATION    = 50.1897
RA_OF_ASC_NODE = 26.9679
ARG_OF_PERICENTER = 143.8974
MEAN_ANOMALY   = 216.4853

EPHEMERIS_TYPE = 0
CLASSIFICATION_TYPE = U
NORAD_CAT_ID   = 52794
ELEMENT_SET_NO = 999
REV_AT_EPOCH   = 20805
BSTAR          = .54143956E-3
MEAN_MOTION_DOT = .35751E-3
MEAN_MOTION_DDOT = 0

